[{
        "District_en": "Yuen Long",
        "Name_en": "Wang Toi Shan Playground",
        "Address_en": "Wang Toi Shan, Fan Kam Road, Pat Heung, Yuen Long",
        "Facilities_en": "4 BBQ pits",
        "Opening_hours_en": "24 hours",
        "Longitude": "114-5-42",
        "Latitude": "22-26-29"
    },
    {
        "District_en": "Tuen Mun",
        "Name_en": "Butterfly Beach Park",
        "Address_en": "Area 45, Lung Mun Road, Tuen Mun (Near Melody Garden)",
        "Facilities_en": "Barbecue Sites (80 nos. of BBQ Pits)",
        "Opening_hours_en": "24 hours",
        "Longitude": "113-57-30",
        "Latitude": "22-22-26"
    },
    {         "District_en":   "Tuen Mun",          "Name_en":   "Cafeteria Old Beach",          "Address_en":   "18 3/4 milestone,Castle Peak Road",          "Facilities_en":   "Barbecue Sites(23 nos. of BBQ Pits)",          "Opening_hours_en":   "24 hours",          "Longitude":   "113-59-0",          "Latitude":   "22-22-33"     },      {         "District_en":   "Tuen Mun",          "Name_en":   "Castle Peak Beach",          "Address_en":   "19 milestone,Castle Peak Road",          "Facilities_en":   "Barbecue Sites (27 nos. of BBQ Pits)",          "Opening_hours_en":   "24 hours",          "Longitude":   "113-58-48",          "Latitude":   "22-22-46"     },      {         "District_en":   "Tuen Mun",          "Name_en":   "Kadoorie Beach",          "Address_en":   "18 3/4 milestone,Castle Peak Road",          "Facilities_en":   "Barbecue Sites (6 nos. of BBQ Pits)",          "Opening_hours_en":   "24 hours",          "Longitude":   "113-58-53",          "Latitude":   "22-22-36"     },      {         "District_en":   "Sai Kung",          "Name_en":   "Clear Water Bay First Beach ",          "Address_en":   "Tai Wan Tau, Clear Water Bay Road",          "Facilities_en":   "Barbecue Site",          "Opening_hours_en":   "24 hours daily",          "Longitude":   "114-17-28",          "Latitude":   "22-17-28"     },      {         "District_en":   "Sai Kung",          "Name_en":   "Kiu Tsui Beach ",          "Address_en":   "Kiu Tsui, Sharp Island ",          "Facilities_en":   "Barbecue Site",          "Opening_hours_en":   "24 hours daily",          "Longitude":   "114-17-18",          "Latitude":   "22-22-4"     },      {         "District_en":   "Sai Kung",          "Name_en":   "Trio Beach ",          "Address_en":   "Trio (Hebehaven) Beach",          "Facilities_en":   "Barbecue Site",          "Opening_hours_en":   "24 hours daily",          "Longitude":   "114-16-4",          "Latitude":   "22-21-28"     },      {         "District_en":   "Sha Tin",          "Name_en":   "Kwei Tei Street Garden",          "Address_en":   "Kwei Tei Street, Fo Tan, Sha Tin",          "Facilities_en":   "Barbecue Sites",          "Opening_hours_en":   "24 hrs",          "Longitude":   "114-11-28",          "Latitude":   "22-24-0"     },      {         "District_en":   "Sha Tin",          "Name_en":   "Lok Shun Path Barbecue Area",          "Address_en":   "Lok Shun Path, Sha Tin",          "Facilities_en":   "Barbecue Sites ",          "Opening_hours_en":   "24 hrs",          "Longitude":   "114-11-58",          "Latitude":   "22-23-56"     },      {         "District_en":   "Southern",          "Name_en":   "Big Wave Bay Beach",          "Address_en":   "Big Wave Bay Road, Shek O, Hong Kong",          "Facilities_en":   "20 barbecue pits",          "Opening_hours_en":   "24 hours daily",          "Longitude":   "114-14-49",          "Latitude":   "22-14-47"     },      {         "District_en":   "Southern",          "Name_en":   "Big Wave Bay Picnic Area",          "Address_en":   "Big Wave Bay Road, Shek O, Hong Kong",          "Facilities_en":   "6 barbecue pits",          "Opening_hours_en":   "24 hours daily",          "Longitude":   "114-14-58",          "Latitude":   "22-14-24"     },      {         "District_en":   "Southern",          "Name_en":   "Chung Hom Kok Beach",          "Address_en":   "Chung Hom Kok Road, Hong Kong",          "Facilities_en":   "25 barbecue pits",          "Opening_hours_en":   "24 hours daily",          "Longitude":   "114-12-8",          "Latitude":   "22-13-4"     },      {         "District_en":   "Southern",          "Name_en":   "Chung Hom Kok Park",          "Address_en":   "Chung Hom Kok Road, Hong Kong",          "Facilities_en":   "3 barbecue pits",          "Opening_hours_en":   "24 hours daily",          "Longitude":   "114-11-52",          "Latitude":   "22-12-38"     },      {         "District_en":   "Southern",          "Name_en":   "Deep Water Bay Beach",          "Address_en":   "Island Road, Deep Water Bay, Hong Kong",          "Facilities_en":   "33 barbecue pits",          "Opening_hours_en":   "24 hours daily",          "Longitude":   "114-11-52",          "Latitude":   "22-12-38"     },      {         "District_en":   "Southern",          "Name_en":   "Hair Pin Beach ",          "Address_en":   "Stanley Beach Road, Stanley, Hong Kong",          "Facilities_en":   "22 barbecue pits",          "Opening_hours_en":   "24 hours daily",          "Longitude":   "114-12-53",          "Latitude":   "22-13-27"     },      {         "District_en":   "Southern",          "Name_en":   "Middle Bay Beach",          "Address_en":   "South Bay Road, Repulse Bay, Hong Kong",          "Facilities_en":   "9 barbecue pits",          "Opening_hours_en":   "24 hours daily",          "Longitude":   "114-11-54",          "Latitude":   "22-13-48"     },      {         "District_en":   "Southern",          "Name_en":   "Shek O Beach",          "Address_en":   "Shek O Road, Shek O, Hong Kong",          "Facilities_en":   "39 barbecue pits",          "Opening_hours_en":   "24 hours daily",          "Longitude":   "114-15-3",          "Latitude":   "22-13-43"     },      {         "District_en":   "Southern",          "Name_en":   "Shek O Headland Picnic Area",          "Address_en":   "Shek O Headland Road, Shek O, Hong Kong",          "Facilities_en":   "3 barbecue pits",          "Opening_hours_en":   "24 hours daily",          "Longitude":   "114-15-27",          "Latitude":   "22-13-48"     },      {         "District_en":   "Southern",          "Name_en":   "South Bay Beach",          "Address_en":   "South Bay Road, Repulse Bay, Hong Kong",          "Facilities_en":   "19 barbecue pits",          "Opening_hours_en":   "24 hours daily",          "Longitude":   "114-11-51",          "Latitude":   "22-13-30"     },      {         "District_en":   "Southern",          "Name_en":   "St. Stephen's Beach",          "Address_en":   "Wong Ma Kok Path, Stanley, Hong Kong",          "Facilities_en":   "14 barbecue pits",          "Opening_hours_en":   "24 hours daily",          "Longitude":   "114-12-54",          "Latitude":   "22-12-48"     },      {         "District_en":   "Southern",          "Name_en":   "Stanley Main Beach",          "Address_en":   "Stanley Beach Road, Stanley, Hong Kong",          "Facilities_en":   "15 barbecue pits",          "Opening_hours_en":   "24 hours daily",          "Longitude":   "114-12-51",          "Latitude":   "22-13-16"     },      {         "District_en":   "Southern",          "Name_en":   "Turtle Cove Beach",          "Address_en":   "Tai Tam Road, Stanley, Hong Kong",          "Facilities_en":   "12 barbecue pits",          "Opening_hours_en":   "24 hours daily",          "Longitude":   "114-13-24",          "Latitude":   "22-13-59"     },      {         "District_en":   "Southern",          "Name_en":   "Waterfall Bay Park",          "Address_en":   "Waterfall Bay Road, Wah Fu Estate, Aberdeen, Hong Kong",          "Facilities_en":   "10 barbecue pits",          "Opening_hours_en":   "24 hours daily",          "Longitude":   "114-8-2",          "Latitude":   "22-15-7"     },      {         "District_en":   "Tsuen Wan",          "Name_en":   "Anglers' Beach",          "Address_en":   "13 milestone, Castle Peak Road, N.T.",          "Facilities_en":   "7 Barbecue pits",          "Opening_hours_en":   "Whole day",          "Longitude":   "114-3-21",          "Latitude":   "22-21-53"     },      {         "District_en":   "Tsuen Wan",          "Name_en":   "Gemini Beach",          "Address_en":   "12 milestone, Castle Peak Road, N.T.",          "Facilities_en":   "2 Barbecue pits",          "Opening_hours_en":   "Whole day",          "Longitude":   "114-4-9",          "Latitude":   "22-21-50"     },      {         "District_en":   "Tsuen Wan",          "Name_en":   "Hoi Mei Wan Beach",          "Address_en":   "11 3/4  milestone, Castle Peak Road, N.T.",          "Facilities_en":   "3 Barbecue pits",          "Opening_hours_en":   "Whole day",          "Longitude":   "114-4-15",          "Latitude":   "22-21-53"     },      {         "District_en":   "Wong Tai Sin",          "Name_en":   "Lion Rock Park",          "Address_en":   "Chuk Yuen Road, Wong Tai Sin, Kowloon",          "Facilities_en":   "26 barbecue pits",          "Opening_hours_en":   "24 hours daily",          "Longitude":   "114-11-2",          "Latitude":   "22-20-41"     },      {         "District_en":   "Islands",          "Name_en":   "Cheung Po Chai Cave Picnic Area",          "Address_en":   "Cheung Po Chai Road, Cheung Chau",          "Facilities_en":   "6 barbecue pits with benches",          "Opening_hours_en":   "Whole day",          "Longitude":   "114-1-6",          "Latitude":   "22-12-3"     },      {         "District_en":   "Islands",          "Name_en":   "Hung Shing Yeh Beach",          "Address_en":   "Hung Shing Yeh Beach, Yung Shue Wan, Lamma Island",          "Facilities_en":   "9 barbecue pits with benches",          "Opening_hours_en":   "Whole day",          "Longitude":   "114-7-11",          "Latitude":   "22-13-8"     },      {         "District_en":   "Islands",          "Name_en":   "Lo So Shing Beach",          "Address_en":   "Lo So Shing Beach, Sok Kwu Wan, Lamma Island",          "Facilities_en":   "6 barbecue pits with benches",          "Opening_hours_en":   "Whole day",          "Longitude":   "114-7-22",          "Latitude":   "22-12-16"     },      {         "District_en":   "Islands",          "Name_en":   "Lo Tik Wan Barbecue Area",          "Address_en":   "Lo Tik Wan, Lamma",          "Facilities_en":   "2 barbecue pits with benches",          "Opening_hours_en":   "Whole day",          "Longitude":   "114-7-34",          "Latitude":   "22-13-26"     },      {         "District_en":   "Islands",          "Name_en":   "Po Chu Tam BBQ Area",          "Address_en":   "Tai O, Lantau Island",          "Facilities_en":   "3 barbecue pits with benches",          "Opening_hours_en":   "Whole day",          "Longitude":   "113-51-44",          "Latitude":   "22-15-28"     },      {         "District_en":   "Islands",          "Name_en":   "Pui O Beach",          "Address_en":   "Pui O Beach, Lantau",          "Facilities_en":   "6 barbecue pits with benches",          "Opening_hours_en":   "Whole day",          "Longitude":   "113-58-33",          "Latitude":   "22-14-24"     },      {         "District_en":   "Islands",          "Name_en":   "Silver Mine Bay Beach",          "Address_en":   "Silver Mine Bay Beach, Lantau Island",          "Facilities_en":   "20 barbecue pits with benches",          "Opening_hours_en":   "Whole day",          "Longitude":   "113-59-56",          "Latitude":   "22-16-12"     },      {         "District_en":   "Islands",          "Name_en":   "Tong Fuk Barbecue Area",          "Address_en":   "Tong Fuk, Lantau Island",          "Facilities_en":   "3 barbecue pits with benches",          "Opening_hours_en":   "Whole day",          "Longitude":   "113-56-2",          "Latitude":   "22-13-36"     },      {         "District_en":   "Islands",          "Name_en":   "Tung Wan Barbecue Area, Peng Chau",          "Address_en":   "Tung Wa, Peng Chau",          "Facilities_en":   "6 barbecue pits with benches",          "Opening_hours_en":   "Whole day",          "Longitude":   "114-2-24",          "Latitude":   "22-17-13"     },      {         "District_en":   "Islands",          "Name_en":   "Upper Cheung Sha Beach",          "Address_en":   "Upper Cheung Sha Beach, Lautau Island.",          "Facilities_en":   "7 barbecue pits with benches ",          "Opening_hours_en":   "Whole day",          "Longitude":   "113-56-29",          "Latitude":   "22-13-50"     },      {         "District_en":   "Tai Po",          "Name_en":   "Tai Mei Tuk Barbecue Area",          "Address_en":   "Tai Po Tai Mei Tuk Road",          "Facilities_en":   "Barbecue Site",          "Opening_hours_en":   "24 hrs daily",          "Longitude":   "114-13-58",          "Latitude":   "22-28-17"     },      {         "District_en":   "Tsuen Wan",          "Name_en":   "Approach Beach",          "Address_en":   "10.5 milestone, Castle Peak Road, N.T.",          "Facilities_en":   "2 Barbecue pits",          "Opening_hours_en":   "Whole day",          "Longitude":   "114-5-11",          "Latitude":   "22-22-3"     },      {         "District_en":   "Sai Kung",          "Name_en":   "Hap Mun Bay Beach",          "Address_en":   "Hap Mun Bay, Sharp Island",          "Facilities_en":   "Barbecue Site",          "Opening_hours_en":   "24 hours daily",          "Longitude":   "114-17-45",          "Latitude":   "22-21-25"     }
]